ENDUROSAT ONE           
1 43551U 98067NZ  20242.47868790  .00142186  18570-4  45189-3 0  9994
2 43551  51.6288 257.3770 0006457  35.5912 324.5524 15.90888234121960
EQUISAT                 
1 43552U 98067PA  20242.52135667  .00048695  00000-0  27805-3 0  9991
2 43552  51.6298 272.1817 0005965  25.0342 335.0947 15.78366398121732
AEROCUBE 12A            
1 43556U 18046C   20242.13968506  .00001552  00000-0  64970-4 0  9993
2 43556  51.6418 116.2609 0008024 191.9393 168.1398 15.29984539118500
AEROCUBE 12B            
1 43557U 18046D   20242.47576694  .00001113  00000-0  50521-4 0  9994
2 43557  51.6420 115.4899 0008079 192.5343 167.5438 15.29682267118497
UITMSAT-1               
1 43589U 98067PD  20242.50259903  .00076624  00000-0  34982-3 0  9996
2 43589  51.6316 268.0947 0005768  38.8966 321.2451 15.83060156117524
MAYA-1                  
1 43590U 98067PE  20242.36897804  .00078745  00000-0  35923-3 0  9992
2 43590  51.6270 268.6593 0005741  34.1995 325.9376 15.83065744117435
BHUTAN-1                
1 43591U 98067PF  20242.26934981  .00073842  00000-0  33357-3 0  9992
2 43591  51.6331 268.8734 0006034  37.1133 323.0286 15.83297141117422
SIRIUSSAT-1             
1 43595U 98067PG  20242.47056095  .00059438  00000-0  32295-3 0  9995
2 43595  51.6265 274.6512 0004098  22.9778 337.1405 15.79398367116544
SIRIUSSAT-2             
1 43596U 98067PH  20242.47401177  .00056782  00000-0  31025-3 0  9990
2 43596  51.6261 275.4988 0004201  21.4414 338.6762 15.79292760116535
TANUSHA-3               
1 43597U 98067PJ  20242.45061541  .00848875  42350-3  80450-3 0  9991
2 43597  51.6183 252.3088 0005689  43.7456 316.4008 16.11324300116831
SURFSAT                 
1 43614U 18070B   20242.47502256  .00003574  00000-0  90877-4 0  9999
2 43614  93.0256 184.7956 0017690  60.6284 299.6734 15.39508352109713
CP7 (DAVE)              
1 43615U 18070C   20242.38370591  .00003343  00000-0  85459-4 0  9999
2 43615  93.0259 184.7437 0017835  60.5472 299.7559 15.39344312109697
ELFIN-B                 
1 43616U 18070D   20242.48712958  .00005397  00000-0  13119-3 0  9992
2 43616  93.0216 184.7541 0018267  61.0806 299.2278 15.40834572109769
ELFIN-A                 
1 43617U 18070E   20242.51091998  .00005288  00000-0  12768-3 0  9999
2 43617  93.0268 185.3376 0017586  58.5556 301.7415 15.41057361109773
CUBEBEL-1 (BSUSAT-1)    
1 43666U 18083E   20242.53295632  .00000947  00000-0  49245-4 0  9998
2 43666  97.4855 268.2665 0016458 103.9479  42.8264 15.18380677101708
CICERO 10               
1 43690U 18088A   20242.42341644  .00000940  00000-0  41254-4 0  9998
2 43690  85.0383  30.2267 0016523  48.5764 311.6893 15.20325886 99821
IRVINE01                
1 43693U 18088D   20242.42315906  .00002986  00000-0  12422-3 0  9999
2 43693  85.0357  28.6902 0018589  29.4362 330.7923 15.23154760 99952
PROXIMA I               
1 43694U 18088E   20242.46340586  .00000974  00000-0  40575-4 0  9992
2 43694  85.0328  28.5485 0019866  21.5537 338.6537 15.22079694 99951
PROXIMA II              
1 43696U 18088G   20242.46154593  .00000973  00000-0  40533-4 0  9998
2 43696  85.0330  28.5541 0019895  21.5089 338.6984 15.22081126 99941
FACSAT-1                
1 43721U 18096C   20242.52435611  .00001381  00000-0  54108-4 0  9993
2 43721  97.4164 315.6945 0016423 220.2209 139.7816 15.27392892 97544
CENTAURI-2              
1 43722U 18096D   20242.45829523  .00002037  00000-0  77140-4 0  9995
2 43722  97.4178 315.9775 0016428 220.0086 139.9944 15.27971825 97543
INNOSAT-2               
1 43738U 18096V   20242.49057164  .00003113  00000-0  10706-3 0  9990
2 43738  97.4203 318.2896 0022034 227.0240 132.9154 15.30636622 97709
SIRION PATHFINDER-2     
1 43759U 18099B   20242.45197718 -.00000172  00000-0 -10356-4 0  9998
2 43759  97.7006 312.8499 0012998 302.5746  57.4220 14.95304822 94844
CORVUS-BC 4             
1 43767U 18099K   20242.48718367  .00000386  00000-0  40726-4 0  9998
2 43767  97.6988 312.2157 0010445 308.3077  51.7203 14.94751337 94813
MOVE-II                 
1 43780U 18099Y   20242.45833532  .00000245  00000-0  27307-4 0  9996
2 43780  97.7015 312.8112 0012350 314.8068  45.2148 14.95460222 94824
SPACEBEE-7              
1 43816U 18099BL  20242.18290222 -.00000089  00000-0 -27613-5 0  9998
2 43816  97.7030 312.9762 0012079 298.8759  61.1250 14.95744901 94368
SPACEBEE-5              
1 43817U 18099BM  20242.43924927  .00000541  00000-0  52794-4 0  9991
2 43817  97.7091 313.7963 0011594 297.7706  62.2339 14.96428794 94426
SPACEBEE-6              
1 43818U 18099BN  20242.47103203  .00000730  00000-0  70293-4 0  9996
2 43818  97.7045 313.4356 0011820 296.7296  63.2715 14.95954574 94567
SHIELDS 1               
1 43850U 18104B   20242.14405753  .00000485  00000-0  19723-4 0  9996
2 43850  85.0297 127.3128 0015686 155.0326 205.1678 15.21440663 94526
STF-1                   
1 43852U 18104D   20242.42355317  .00001103  00000-0  47267-4 0  9991
2 43852  85.0338 127.7150 0014750 167.7696 192.3907 15.21406838 94544
ZACUBE-2                
1 43907U 18111AH  20242.50114959  .00000504  00000-0  23171-4 0  9996
2 43907  97.2572 140.0374 0019845 243.8448 116.0749 15.24652983 93146
LUME 1                  
1 43908U 18111AJ  20242.53365304  .00001000  00000-0  42526-4 0  9999
2 43908  97.2573 140.2922 0019542 243.0299 116.8944 15.25163340 93161
AOBA VELOX-IV           
1 43940U 19003J   20242.07539391  .00001693  00000-0  69711-4 0  9997
2 43940  97.2221 290.8462 0022623 330.2194  29.7756 15.25237844 89715
CATSAT-2                
1 44029U 98067PV  20242.43264530  .00025430  00000-0  23358-3 0  9994
2 44029  51.6384 305.5745 0004572  11.9096 348.2008 15.67531446 89960
DELPHINI                
1 44030U 98067PW  20242.46053322  .00030282  00000-0  26317-3 0  9993
2 44030  51.6336 303.3569 0004749   9.0887 351.0195 15.68788889 89966
UNITE                   
1 44031U 98067PX  20242.44043286  .00011751  00000-0  13493-3 0  9991
2 44031  51.6381 313.8400 0003386   2.3894 357.7116 15.62536726 89823
CATSAT-1                
1 44033U 98067PZ  20242.43220427  .00026204  00000-0  24022-3 0  9995
2 44033  51.6386 305.5794 0004424  12.0355 348.0746 15.67561483 89878
RAAVANA-1               
1 44329U 98067QE  20242.48435536  .00013711  00000-0  17757-3 0  9993
2 44329  51.6404 327.7046 0005197 284.4781  75.5635 15.59192918 68396
UGUISU                  
1 44330U 98067QF  20242.50122261  .00013915  00000-0  18081-3 0  9993
2 44330  51.6380 327.7952 0005161 283.7631  76.2787 15.59089983 68375
NEPALISAT-1             
1 44331U 98067QG  20242.47598295  .00013522  00000-0  17513-3 0  9997
2 44331  51.6379 327.6290 0005266 287.1308  72.9108 15.59205101 68386
SPOOQY-1                
1 44332U 98067QH  20242.54846014  .00013232  00000-0  17232-3 0  9997
2 44332  51.6390 327.3673 0004394 291.2867  68.7656 15.59085352 68351
SPACEBEE-9              
1 44370U 19037F   20242.52363265  .00010758  00000-0  23449-3 0  9996
2 44370  45.0067  66.9127 0014341 255.4113 104.5187 15.44378887 65896
SPACEBEE-8              
1 44371U 19037G   20241.92454625  .00022290  00000-0  39871-3 0  9991
2 44371  45.0069  61.6163 0013147 256.1182 103.8247 15.49579933 65886
IOD-1 GEMS              
1 44385U 98067QK  20242.47152956  .00022270  00000-0  25247-3 0  9999
2 44385  51.6401 324.6666 0001352 269.1279  90.9560 15.62297582 65897
MOVE-IIB                
1 44398U 19038N   20242.46346429  .00001103  00000-0  66871-4 0  9994
2 44398  97.5421 202.7939 0023610 234.1852 125.7185 15.12462253 63613
SONATE                  
1 44400U 19038Q   20242.51726082  .00000486  00000-0  31962-4 0  9997
2 44400  97.5463 202.8563 0023786 232.5481 127.3586 15.12018343 63611
LUCKY-7                 
1 44406U 19038W   20242.45372303  .00000570  00000-0  36582-4 0  9996
2 44406  97.5458 202.9220 0023197 232.2140 127.6990 15.12295561 63607
BEESAT 9                
1 44412U 19038AC  20242.44797368  .00000809  00000-0  50174-4 0  9992
2 44412  97.5447 202.8985 0021138 238.1925 121.7247 15.12400297 63309
JAISAT-1                
1 44419U 19038F   20242.44495283  .00000807  00000-0  49432-4 0  9993
2 44419  97.5448 203.2151 0020019 236.9985 122.9322 15.12884072 63636
SWIATOWID               
1 44426U 98067QL  20242.50245382  .00020807  00000-0  22437-3 0  9997
2 44426  51.6413 323.3109 0001619 269.3329 103.6620 15.63633658 65931
KRAKSAT                 
1 44427U 98067QM  20242.53310905  .00007126  00000-0  10387-3 0  9995
2 44427  51.6440 331.7913 0002486 218.8107 154.2883 15.56897726 65869
VCC A                   
1 44428U 98067QN  20242.50799607  .00013127  00000-0  17480-3 0  9992
2 44428  51.6402 329.4096 0001856 263.1292  96.9489 15.58501589 65890
ENTRYSAT                
1 44429U 98067QP  20242.48941341  .00016532  00000-0  20814-3 0  9992
2 44429  51.6392 327.7480 0001510 260.6173  99.4649 15.59777876 65918
VCC C                   
1 44430U 98067QQ  20242.52861363  .00020497  00000-0  24192-3 0  9992
2 44430  51.6390 325.7674 0001705 298.3153  61.7668 15.61308377 64767
VCC B                   
1 44431U 98067QR  20242.50548560  .00014130  00000-0  18723-3 0  9992
2 44431  51.6390 329.3738 0002170 249.8327 110.2432 15.58558846 65832
ATL-1                   
1 44830U 19084G   20242.40509780  .00176558  13071-4  60914-3 0  9995
2 44830  96.9597 112.6820 0014088 312.8319  47.1770 15.89390168 41993
SMOG-P                  
1 44832U 19084J   20242.29711519  .00232377  22342-4  65043-3 0  9990
2 44832  96.9583 112.9909 0011124 308.0897  51.9375 15.93519124 42004
DUCHIFAT-3              
1 44854U 19089C   20242.56253977  .00000274  00000-0  28507-4 0  9995
2 44854  36.9679  26.2768 0009880 296.9720  63.0023 14.99111001 39270
EYESAT-NANO             
1 44877U 19092E   20242.49681682  .00001013  00000-0  54643-4 0  9996
2 44877  97.4570  64.6034 0014999 121.6351 238.6348 15.16946609 38662
